NORAD_CAT_ID,OBJECT_NAME,OBJECT_TYPE,EPOCH,MEAN_MOTION,ECCENTRICITY,INCLINATION,RA_OF_ASC_NODE,ARG_OF_PERICENTER,MEAN_ANOMALY,BSTAR,MEAN_MOTION_DOT,MEAN_MOTION_DDOT,TLE_LINE0,TLE_LINE1,TLE_LINE2,SEMIMAJOR_AXIS,PERIOD,APOGEE,PERIGEE,DECAYED
52482.0,STARLINK-3813,PAYLOAD,2022-09-30 07:56:35,15.08837485,0.0001934,53.2166,289.1209,47.9198,312.1958,-0.0001181,-2.167e-05,0.0,0 STARLINK-3813,1 52482U 22049AH  22273.33096396 -.00002167  00000-0 -11810-3 0  9995,2 52482  53.2166 289.1209 0001934  47.9198 312.1958 15.08837485 22880,6917.888000000001,95.438,541.091,538.415,0.0
52482.0,STARLINK-3813,PAYLOAD,2022-10-01 04:36:35,15.08832867,0.0001903,53.2163,285.255,45.5488,314.566,0.00019436,2.806e-05,0.0,0 STARLINK-3813,1 52482U 22049AH  22274.19207744  .00002806  00000-0  19436-3 0  9991,2 52482  53.2163 285.2550 0001903  45.5488 314.5660 15.08832867 23016,6917.901999999999,95.438,541.0840000000002,538.451,0.0
52482.0,STARLINK-3813,PAYLOAD,2022-10-01 07:47:21,15.08836854,0.0001916999999999,53.2163,284.6605,46.4196,313.6955,0.00022246,3.254e-05,0.0,0 STARLINK-3813,1 52482U 22049AH  22274.32455464  .00003254  00000-0  22246-3 0  9991,2 52482  53.2163 284.6605 0001917  46.4196 313.6955 15.08836854 22871,6917.89,95.438,541.081,538.429,0.0
52482.0,STARLINK-3813,PAYLOAD,2022-10-01 17:19:40,15.08831967,0.0001955999999999,53.2162,282.8768,46.3568,313.7586,0.00014532,2.025e-05,0.0,0 STARLINK-3813,1 52482U 22049AH  22274.72200211  .00002025  00000-0  14532-3 0  9997,2 52482  53.2162 282.8768 0001956  46.3568 313.7586 15.08831967 22933,6917.905,95.438,541.123,538.4169999999998,0.0
52482.0,STARLINK-3813,PAYLOAD,2022-10-02 04:27:23,15.08834064,0.0001794,53.2164,280.7943,43.7221,316.3913,4.3507e-05,4.04e-06,0.0,0 STARLINK-3813,1 52482U 22049AH  22275.18568553  .00000404  00000-0  43507-4 0  9998,2 52482  53.2164 280.7943 0001794  43.7221 316.3913 15.08834064 23164,6917.899,95.438,541.005,538.5219999999998,0.0
52482.0,STARLINK-3813,PAYLOAD,2022-10-02 07:38:09,15.08829626,0.0001884,53.2161,280.1991,42.0007,318.1129,1.6782e-06,-2.61e-06,0.0,0 STARLINK-3813,1 52482U 22049AH  22275.31817050 -.00000261  00000-0  16782-5 0  9990,2 52482  53.2161 280.1991 0001884  42.0007 318.1129 15.08829626 23024,6917.9119999999975,95.438,541.08,538.474,0.0
52482.0,STARLINK-3813,PAYLOAD,2022-10-02 17:10:28,15.08837803,0.0001883,53.2171,278.4161,48.8085,311.3069,2.4008e-05,9.4e-07,0.0,0 STARLINK-3813,1 52482U 22049AH  22275.71560575  .00000094  00000-0  24008-4 0  9993,2 52482  53.2171 278.4161 0001883  48.8085 311.3069 15.08837803 23083,6917.887,95.438,541.055,538.4490000000002,0.0
52482.0,STARLINK-3813,PAYLOAD,2022-10-03 04:18:09,15.08858068,0.0001798,53.2167,276.3323,53.1092,307.0065,-4.7816e-05,-1.049e-05,0.0,0 STARLINK-3813,1 52482U 22049AH  22276.17927405 -.00001049  00000-0 -47816-4 0  9998,2 52482  53.2167 276.3323 0001798  53.1092 307.0065 15.08858068 23317,6917.825,95.436,540.934,538.446,0.0
52482.0,STARLINK-3813,PAYLOAD,2022-10-03 07:28:55,15.08855114,0.0001908,53.2166,275.7389,47.8836,312.2318,5.1188e-05,5.27e-06,0.0,0 STARLINK-3813,1 52482U 22049AH  22276.31175233  .00000527  00000-0  51188-4 0  9993,2 52482  53.2166 275.7389 0001908  47.8836 312.2318 15.08855114 23172,6917.834,95.437,541.019,538.379,0.0
52482.0,STARLINK-3813,PAYLOAD,2022-10-03 17:01:13,15.08854727,0.0001954,53.2166,273.9542,45.6089,314.5063,9.5734e-05,1.236e-05,0.0,0 STARLINK-3813,1 52482U 22049AH  22276.70918774  .00001236  00000-0  95734-4 0  9994,2 52482  53.2166 273.9542 0001954  45.6089 314.5063 15.08854727 23238,6917.835,95.437,541.052,538.349,0.0
52482.0,STARLINK-3813,PAYLOAD,2022-10-04 08:55:05,15.08842318,0.000195,53.2171,270.9811,48.9318,311.1842,0.00010911,1.449e-05,0.0,0 STARLINK-3813,1 52482U 22049AH  22277.37159311  .00001449  00000-0  10911-3 0  9991,2 52482  53.2171 270.9811 0001950  48.9318 311.1842 15.08842318 23496,6917.873000000001,95.437,541.087,538.389,0.0
52482.0,STARLINK-3813,PAYLOAD,2022-10-04 16:52:01,15.08837076,0.0001974,53.217,269.4939,48.9685,311.1477,2.8864e-05,1.71e-06,0.0,0 STARLINK-3813,1 52482U 22049AH  22277.70279890  .00000171  00000-0  28864-4 0  9991,2 52482  53.2170 269.4939 0001974  48.9685 311.1477 15.08837076 23389,6917.889,95.438,541.12,538.389,0.0
52482.0,STARLINK-3813,PAYLOAD,2022-10-05 07:10:30,15.08840195,0.0001795,53.2175,266.8159,51.0599,309.0553,-8.840700000000001e-05,-1.695e-05,0.0,0 STARLINK-3813,1 52482U 22049AH  22278.29896012 -.00001695  00000-0 -88407-4 0  9990,2 52482  53.2175 266.8159 0001795  51.0599 309.0553 15.08840195 23476,6917.88,95.438,540.987,538.503,0.0
52482.0,STARLINK-3813,PAYLOAD,2022-10-05 16:42:48,15.08844783,0.0001835,53.2174,265.033,50.6982,309.4172,-5.3192e-05,-1.135e-05,0.0,0 STARLINK-3813,1 52482U 22049AH  22278.69639536 -.00001135  00000-0 -53192-4 0  9992,2 52482  53.2174 265.0330 0001835  50.6982 309.4172 15.08844783 23538,6917.866,95.437,541.0,538.461,0.0
52482.0,STARLINK-3813,PAYLOAD,2022-10-06 08:36:39,15.08845166,0.0001674,53.2174,262.0582,58.639,301.4766,3.6208e-05,2.88e-06,0.0,0 STARLINK-3813,1 52482U 22049AH  22279.35879191  .00000288  00000-0  36208-4 0  9994,2 52482  53.2174 262.0582 0001674  58.6390 301.4766 15.08845166 23634,6917.865,95.437,540.888,538.572,0.0
52482.0,STARLINK-3813,PAYLOAD,2022-10-06 16:33:35,15.08837855,0.0001764999999999,53.2182,260.5692,61.6727,298.4443,6.0064e-06,-1.93e-06,0.0,0 STARLINK-3813,1 52482U 22049AH  22279.68999744 -.00000193  00000-0  60064-5 0  9991,2 52482  53.2182 260.5692 0001765  61.6727 298.4443 15.08837855 23843,6917.887,95.438,540.9730000000002,538.531,0.0
52482.0,STARLINK-3813,PAYLOAD,2022-10-07 08:27:26,15.0883994,0.0001554,53.2168,257.5981,45.7351,314.3768,6.105100000000001e-05,6.84e-06,0.0,0 STARLINK-3813,1 52482U 22049AH  22280.35239478  .00000684  00000-0  61051-4 0  9998,2 52482  53.2168 257.5981 0001554  45.7351 314.3768 15.08839940 23784,6917.880999999999,95.438,540.821,538.6709999999998,0.0
52482.0,STARLINK-3813,PAYLOAD,2022-10-07 13:13:35,15.08846411,0.0001757,53.2175,256.7073,41.6635,318.449,0.00012246,1.662e-05,0.0,0 STARLINK-3813,1 52482U 22049AH  22280.55110857  .00001662  00000-0  12246-3 0  9997,2 52482  53.2175 256.7073 0001757  41.6635 318.4490 15.08846411 23979,6917.861,95.437,540.941,538.51,0.0
52482.0,STARLINK-3813,PAYLOAD,2022-10-08 05:07:28,15.088366699999998,0.0001774999999999,53.2178,253.7303,53.408,306.7075,6.7077e-06,-1.81e-06,0.0,0 STARLINK-3813,1 52482U 22049AH  22281.21351960 -.00000181  00000-0  67077-5 0  9993,2 52482  53.2178 253.7303 0001775  53.4080 306.7075 15.08836670 24077,6917.891,95.438,540.9830000000002,538.528,0.0
52482.0,STARLINK-3813,PAYLOAD,2022-10-08 08:18:14,15.08837556,0.0001781,53.2168,253.1379,45.7855,314.3284,-4.8045e-05,-1.053e-05,0.0,0 STARLINK-3813,1 52482U 22049AH  22281.34600123 -.00001053  00000-0 -48045-4 0  9998,2 52482  53.2168 253.1379 0001781  45.7855 314.3284 15.08837556 23939,6917.888000000001,95.438,540.985,538.521,0.0
52482.0,STARLINK-3813,PAYLOAD,2022-10-08 14:39:47,15.0883479,0.0001803,53.2174,251.9479,50.4948,309.6203,-4.2083e-05,-9.58e-06,0.0,0 STARLINK-3813,1 52482U 22049AH  22281.61096366 -.00000958  00000-0 -42083-4 0  9995,2 52482  53.2174 251.9479 0001803  50.4948 309.6203 15.08834790 23973,6917.896,95.438,541.009,538.514,0.0
52482.0,STARLINK-3813,PAYLOAD,2022-10-09 06:33:38,15.08834444,0.0001686999999999,53.2172,248.974,40.2994,319.8122,1.8381e-05,4e-08,0.0,0 STARLINK-3813,1 52482U 22049AH  22282.27336264  .00000004  00000-0  18381-4 0  9996,2 52482  53.2172 248.9740 0001687  40.2994 319.8122 15.08834444 24235,6917.897,95.438,540.929,538.595,0.0
52482.0,STARLINK-3813,PAYLOAD,2022-10-10 06:24:25,15.08840278,0.0001774,53.2173,244.514,43.7327,316.3806,9.9198e-05,1.291e-05,0.0,0 STARLINK-3813,1 52482U 22049AH  22283.26695738  .00001291  00000-0  99198-4 0  9994,2 52482  53.2173 244.5140 0001774  43.7327 316.3806 15.08840278 24229,6917.88,95.438,540.972,538.5169999999998,0.0
52482.0,STARLINK-3813,PAYLOAD,2022-10-10 20:42:54,15.088316,0.0001726,53.2166,241.8389,37.9148,322.1965,2.2284e-05,6.7e-07,0.0,0 STARLINK-3813,1 52482U 22049AH  22283.86312674  .00000067  00000-0  22284-4 0  9997,2 52482  53.2166 241.8389 0001726  37.9148 322.1965 15.08831600 24319,6917.906,95.438,540.965,538.577,0.0
52482.0,STARLINK-3813,PAYLOAD,2022-10-11 03:04:27,15.0882573,0.0001721999999999,53.217,240.649,39.5744,320.5374,-4.1425e-05,-9.47e-06,0.0,0 STARLINK-3813,1 52482U 22049AH  22284.12809394 -.00000947  00000-0 -41425-4 0  9994,2 52482  53.2170 240.6490 0001722  39.5744 320.5374 15.08825730 24515,6917.924,95.438,540.98,538.5980000000002,0.0
52482.0,STARLINK-3813,PAYLOAD,2022-10-11 06:15:14,15.08818257,0.0001704,53.2177,240.056,50.7731,309.3412,-9.4944e-05,-1.798e-05,0.0,0 STARLINK-3813,1 52482U 22049AH  22284.26058208 -.00001798  00000-0 -94944-4 0  9998,2 52482  53.2177 240.0560 0001704  50.7731 309.3412 15.08818257 24373,6917.946999999999,95.439,540.991,538.633,0.0
52482.0,STARLINK-3813,PAYLOAD,2022-10-12 04:30:37,15.08828747,0.0001813,53.218,235.897,54.0264,306.0896,6.312e-05,7.16e-06,0.0,0 STARLINK-3813,1 52482U 22049AH  22285.18793644  .00000716  00000-0  63120-4 0  9999,2 52482  53.2180 235.8970 0001813  54.0264 306.0896 15.08828747 24671,6917.915,95.438,541.034,538.526,0.0
52482.0,STARLINK-3813,PAYLOAD,2022-10-12 06:06:00,15.08833646,0.0001719,53.2176,235.5987,55.7657,304.3498,2.0751e-05,4.2e-07,0.0,0 STARLINK-3813,1 52482U 22049AH  22285.25417491  .00000042  00000-0  20751-4 0  9995,2 52482  53.2176 235.5987 0001719  55.7657 304.3498 15.08833646 24527,6917.9,95.438,540.9540000000002,538.576,0.0
52482.0,STARLINK-3813,PAYLOAD,2022-10-12 14:02:56,15.08833428,0.0001688,53.2176,234.1102,53.1711,306.9436,8.365799999999999e-05,1.043e-05,0.0,0 STARLINK-3813,1 52482U 22049AH  22285.58537508  .00001043  00000-0  83658-4 0  9990,2 52482  53.2176 234.1102 0001688  53.1711 306.9436 15.08833428 24572,6917.9,95.438,540.933,538.5980000000002,0.0
